     2.100          NAVIGATION                              RINEX VERSION / TYPE
fic2rin                                 07/21/2010 00:41:07 PGM / RUN BY / DATE
                                                            END OF HEADER
 3 10  7 20  6  0  0.0  .583923887461D-03  .500222085975D-11  .000000000000D+00
     .102000000000D+03 -.584375000000D+01  .561666252797D-08 -.892621341079D+00
     .242143869400D-07  .133654678939D-01  .642798841000D-05  .515371181679D+04
     .194400000000D+06  .707805156708D-07 -.280288869908D+01  .257045030594D-06
     .927651577189D+00  .237781250000D+03  .101188039491D+01 -.858928634968D-08
     .289297764699D-09  .100000000000D+01  .159300000000D+04  .000000000000D+00
     .240000000000D+01  .000000000000D+00 -.465661287308D-08  .102000000000D+03
     .187206000000D+06  .400000000000D+01
 4 10  7 20  6  0  0.0  .128670129925D-03  .807176547823D-11  .000000000000D+00
     .160000000000D+02  .132812500000D+02  .516021494367D-08  .228260890913D+01
     .655651092529D-06  .912452291232D-02  .891275703907D-05  .515372065926D+04
     .194400000000D+06 -.186264514923D-06 -.163181614522D+01 -.968575477600D-07
     .938460884308D+00  .198312500000D+03  .616951233581D+00 -.808819404860D-08
    -.256082095419D-09  .100000000000D+01  .159300000000D+04  .000000000000D+00
     .240000000000D+01  .000000000000D+00 -.605359673500D-08  .160000000000D+02
     .187206000000D+06  .400000000000D+01
 6 10  7 20  6  0  0.0  .566171016544D-03 -.144382283906D-10  .000000000000D+00
     .190000000000D+02 -.128437500000D+02  .541808282775D-08  .131334996829D+01
    -.720843672752D-06  .627354707103D-02  .638328492641D-05  .515364903450D+04
     .194400000000D+06  .145286321640D-06 -.273185945764D+01 -.130385160446D-06
     .934917009149D+00  .242531250000D+03 -.100858408938D+01 -.833820446254D-08
     .238581366443D-09  .100000000000D+01  .159300000000D+04  .000000000000D+00
     .240000000000D+01  .000000000000D+00 -.512227416039D-08  .190000000000D+02
     .187206000000D+06  .400000000000D+01
 7 10  7 20  6  0  0.0 -.176578760147D-05 -.113686837722D-12  .000000000000D+00
     .440000000000D+02 -.721875000000D+02  .401373861690D-08 -.239202178259D+01
    -.376440584660D-05  .379939679988D-02  .623613595963D-05  .515370791435D+04
     .194400000000D+06 -.316649675369D-07  .151183865671D+01  .931322574615D-08
     .971931531250D+00  .266750000000D+03  .303871494825D+01 -.789532887214D-08
    -.135719938995D-10  .100000000000D+01  .159300000000D+04  .000000000000D+00
     .240000000000D+01  .000000000000D+00 -.102445483208D-07  .440000000000D+02
     .187206000000D+06  .400000000000D+01
 8 10  7 20  6  0  0.0  .616023316979D-05  .113686837722D-12  .000000000000D+00
     .330000000000D+02 -.786562500000D+02  .352300389011D-08 -.302759241135D+01
    -.409595668316D-05  .112578221597D-01  .682473182678D-05  .515368084908D+04
     .194400000000D+06 -.130385160446D-06  .158088812526D+01  .130385160446D-07
     .993341739642D+00  .265312500000D+03  .310917341172D+01 -.753995692661D-08
    -.532165023952D-10  .100000000000D+01  .159300000000D+04  .000000000000D+00
     .240000000000D+01  .000000000000D+00 -.372529029846D-08  .330000000000D+02
     .187206000000D+06  .400000000000D+01
 9 10  7 20  6  0  0.0  .193454325199D-04  .227373675443D-11  .000000000000D+00
     .650000000000D+02 -.956250000000D+02  .368301055503D-08  .312764789756D+01
    -.478886067867D-05  .171726801200D-01  .658445060253D-05  .515371574783D+04
     .194400000000D+06  .178813934326D-06  .148102407359D+01  .558793544769D-08
     .981003779682D+00  .260093750000D+03  .153551334087D+01 -.752638493271D-08
    -.117504894551D-09  .100000000000D+01  .159300000000D+04  .000000000000D+00
     .340000000000D+01  .000000000000D+00 -.558793544769D-08  .650000000000D+02
     .187206000000D+06  .400000000000D+01
10 10  7 20  6  0  0.0 -.474425032735D-04 -.909494701773D-12  .000000000000D+00
     .730000000000D+02  .909687500000D+02  .479234247744D-08  .934513153058D+00
     .505521893501D-05  .920489127748D-02  .716932117939D-05  .515353593826D+04
     .194400000000D+06 -.223517417908D-07 -.563897170866D+00  .126659870148D-06
     .952777729165D+00  .236562500000D+03  .663543414515D+00 -.827927343640D-08
    -.232152527227D-09  .100000000000D+01  .159300000000D+04  .000000000000D+00
     .340000000000D+01  .000000000000D+00 -.279396772385D-08  .730000000000D+02
     .187206000000D+06  .400000000000D+01
11 10  7 20  6  0  0.0 -.768019817770D-04 -.250111042988D-11  .000000000000D+00
     .940000000000D+02 -.130937500000D+02  .641919595671D-08 -.253351490908D+01
    -.935047864914D-06  .108287450857D-01  .774860382080D-05  .515375091171D+04
     .194400000000D+06  .117346644402D-06 -.187103007525D+01 -.165775418282D-06
     .887975916401D+00  .189406250000D+03  .817341665767D+00 -.870179103595D-08
    -.164649715464D-09  .100000000000D+01  .159300000000D+04  .000000000000D+00
     .240000000000D+01  .000000000000D+00 -.116415321827D-07  .940000000000D+02
     .187206000000D+06  .400000000000D+01
12 10  7 20  6  0  0.0 -.917753204703D-04  .397903932026D-11  .000000000000D+00
     .107000000000D+03 -.427187500000D+02  .406695511929D-08 -.247288820746D+01
    -.208616256714D-05  .343137141317D-02  .919960439205D-05  .515365236855D+04
     .194400000000D+06 -.409781932831D-07  .256605852677D+01  .651925802231D-07
     .971663763113D+00  .208187500000D+03 -.373120515499D+00 -.773996525776D-08
     .519307345521D-09  .100000000000D+01  .159300000000D+04  .000000000000D+00
     .240000000000D+01  .000000000000D+00 -.116415321827D-07  .107000000000D+03
     .187206000000D+06  .400000000000D+01
14 10  7 20  6  0  0.0  .696885399520D-04  .409272615798D-11  .000000000000D+00
     .470000000000D+02  .201875000000D+02  .414517266308D-08 -.735078035636D-01
     .109709799290D-05  .527242559474D-02  .244006514549D-05  .515376144600D+04
     .194400000000D+06 -.204890966415D-07  .509204679402D+00  .949949026108D-07
     .985904635708D+00  .345250000000D+03 -.214659754295D+01 -.823641450830D-08
    -.155006456641D-09  .100000000000D+01  .159300000000D+04  .000000000000D+00
     .240000000000D+01  .000000000000D+00 -.884756445885D-08  .470000000000D+02
     .187206000000D+06  .400000000000D+01
15 10  7 20  6  0  0.0 -.236904714257D-03  .602540239925D-11  .000000000000D+00
     .101000000000D+03  .182187500000D+02  .475376944215D-08 -.202934162920D+00
     .853091478348D-06  .254077219870D-02  .268220901489D-05  .515378684425D+04
     .194400000000D+06  .111758708954D-07  .443451282314D+00 -.428408384323D-07
     .953456802571D+00  .326062500000D+03 -.177737793801D+00 -.845570935709D-08
    -.185007706314D-09  .100000000000D+01  .159300000000D+04  .000000000000D+00
     .240000000000D+01  .000000000000D+00 -.977888703346D-08  .101000000000D+03
     .187206000000D+06  .400000000000D+01
16 10  7 20  6  0  0.0 -.913371331990D-04 -.363797880709D-11  .000000000000D+00
     .450000000000D+02 -.459687500000D+02  .405088302125D-08  .147548888751D+01
    -.228546559811D-05  .591588497628D-02  .866688787937D-05  .515380295753D+04
     .194400000000D+06  .353902578354D-07  .258354691805D+01  .800937414169D-07
     .972861203986D+00  .218500000000D+03 -.178218858319D+00 -.768567728217D-08
     .361800784741D-09  .100000000000D+01  .159300000000D+04  .000000000000D+00
     .240000000000D+01  .000000000000D+00 -.977888703346D-08  .450000000000D+02
     .187206000000D+06  .400000000000D+01
17 10  7 20  6  0  0.0  .162723939866D-03  .181898940355D-11  .000000000000D+00
     .820000000000D+02 -.125312500000D+02  .487270296764D-08  .407743170928D+00
    -.746920704842D-06  .549668550957D-02  .693462789059D-05  .515362837601D+04
     .194400000000D+06 -.149011611938D-07 -.265699466736D+01  .502914190292D-07
     .960497006590D+00  .248687500000D+03 -.250191438200D+01 -.814641075928D-08
     .132148361653D-09  .100000000000D+01  .159300000000D+04  .000000000000D+00
     .340000000000D+01  .000000000000D+00 -.102445483208D-07  .820000000000D+02
     .187206000000D+06  .400000000000D+01
18 10  7 20  6  0  0.0  .819037668407D-04  .238742359215D-11  .000000000000D+00
     .970000000000D+02  .110406250000D+03  .506056793582D-08  .182909280017D+01
     .555813312531D-05  .116904401220D-01  .794604420662D-05  .515371498108D+04
     .194400000000D+06 -.296160578728D-06 -.564751576467D+00 -.968575477600D-07
     .936737043086D+00  .216718750000D+03 -.231850561845D+01 -.833606151614D-08
    -.107147320259D-09  .100000000000D+01  .159300000000D+04  .000000000000D+00
     .340000000000D+01  .000000000000D+00 -.107102096081D-07  .970000000000D+02
     .187206000000D+06  .400000000000D+01
20 10  7 20  6  0  0.0  .531557016075D-04 -.454747350886D-12  .000000000000D+00
     .102000000000D+03  .886875000000D+02  .501806616545D-08  .206559652670D+01
     .446662306786D-05  .413163716439D-02  .792369246483D-05  .515357339859D+04
     .194400000000D+06 -.186264514923D-07 -.618690229171D+00 -.987201929092D-07
     .936622316662D+00  .210375000000D+03  .131631432454D+01 -.818534095231D-08
    -.131791203918D-09  .100000000000D+01  .159300000000D+04  .000000000000D+00
     .240000000000D+01  .000000000000D+00 -.791624188423D-08  .102000000000D+03
     .187206000000D+06  .400000000000D+01
21 10  7 20  6  0  0.0 -.751800835133D-04 -.261479726760D-11  .000000000000D+00
     .103000000000D+03  .203750000000D+02  .518985903560D-08  .294759118696D+01
     .905245542526D-06  .167562467977D-01  .941380858421D-05  .515365560532D+04
     .194400000000D+06 -.894069671631D-07 -.162140285442D+01 -.266358256340D-06
     .932028089728D+00  .183625000000D+03 -.245889890703D+01 -.792961601462D-08
    -.370015412627D-09  .100000000000D+01  .159300000000D+04  .000000000000D+00
     .240000000000D+01  .000000000000D+00 -.121071934700D-07  .103000000000D+03
     .187206000000D+06  .400000000000D+01
